SHERPA-AC1              
1 52763U 22057AH  26068.88332880  .00010651  00000+0  31898-3 0  9995
2 52763  97.6522 214.1740 0009037  87.4363 272.7914 15.34672465210463
STARLINK-34302          
1 65216U 25176U   26068.47290976  .00021193  00000+0  72558-3 0  9992
2 65216  53.1595 153.9872 0001264 134.6336 225.4768 15.30202628 33081
